{
  "type": "FeatureCollection",
  "features": [
    {
      "type": "Feature",
      "properties": {
        "norad_id": 40128,
        "name": "GSAT0201 (GALILEO 5)",
        "group": "gnss",
        "lat": -0.9342871690386657,
        "lon": -80.2204345241339,
        "alt_km": 26185.041752379555,
        "timestamp": "2025-12-24T05:51:19.851547+00:00",
        "meta_object_name": "GSAT0201 (GALILEO 5)",
        "meta_object_id": "2014-050A",
        "meta_epoch": "2025-12-23T04:02:42.572256",
        "meta_mean_motion": 1.85519666,
        "meta_eccentricity": 0.16488905,
        "meta_inclination": 49.0647,
        "meta_ra_of_asc_node": 280.6385,
        "meta_arg_of_pericenter": 172.6684,
        "meta_mean_anomaly": 190.1357,
        "meta_ephemeris_type": 0,
        "meta_classification_type": "U",
        "meta_norad_cat_id": 40128,
        "meta_element_set_no": 999,
        "meta_rev_at_epoch": 7505,
        "meta_bstar": 0,
        "meta_mean_motion_dot": -3.6e-07,
        "meta_mean_motion_ddot": 0,
        "tle_line1": "1 40128U 14050A   25357.16854829 -.00000036  00000+0  00000+0 0  9998",
        "tle_line2": "2 40128  49.0647 280.6385 1648890 172.6684 190.1357  1.85519666 75059"
      },
      "geometry": {
        "type": "Point",
        "coordinates": [
          -80.2204345241339,
          -0.9342871690386657
        ]
      }
    },
    {
      "type": "Feature",
      "properties": {
        "norad_id": 40129,
        "name": "GSAT0202 (GALILEO 6)",
        "group": "gnss",
        "lat": -12.222596404172526,
        "lon": 110.48775483747882,
        "alt_km": 17238.41219218249,
        "timestamp": "2025-12-24T05:51:19.851560+00:00",
        "meta_object_name": "GSAT0202 (GALILEO 6)",
        "meta_object_id": "2014-050B",
        "meta_epoch": "2025-12-18T13:46:22.484640",
        "meta_mean_motion": 1.85520466,
        "meta_eccentricity": 0.16491259,
        "meta_inclination": 49.0858,
        "meta_ra_of_asc_node": 279.9095,
        "meta_arg_of_pericenter": 173.2442,
        "meta_mean_anomaly": 189.3393,
        "meta_ephemeris_type": 0,
        "meta_classification_type": "U",
        "meta_norad_cat_id": 40129,
        "meta_element_set_no": 999,
        "meta_rev_at_epoch": 7713,
        "meta_bstar": 0,
        "meta_mean_motion_dot": -5.9e-07,
        "meta_mean_motion_ddot": 0,
        "tle_line1": "1 40129U 14050B   25352.57387135 -.00000059  00000+0  00000+0 0  9995",
        "tle_line2": "2 40129  49.0858 279.9095 1649125 173.2442 189.3393  1.85520466 77135"
      },
      "geometry": {
        "type": "Point",
        "coordinates": [
          110.48775483747882,
          -12.222596404172526
        ]
      }
    },
    {
      "type": "Feature",
      "properties": {
        "norad_id": 40269,
        "name": "IRNSS-1C",
        "group": "gnss",
        "lat": 0.8747356421399777,
        "lon": -96.05058470296999,
        "alt_km": 35861.08812806601,
        "timestamp": "2025-12-24T05:51:19.851572+00:00",
        "meta_object_name": "IRNSS-1C",
        "meta_object_id": "2014-061A",
        "meta_epoch": "2025-12-23T19:52:06.021408",
        "meta_mean_motion": 1.00273456,
        "meta_eccentricity": 0.00180885,
        "meta_inclination": 6.0701,
        "meta_ra_of_asc_node": 92.3991,
        "meta_arg_of_pericenter": 0.9978,
        "meta_mean_anomaly": 20.2495,
        "meta_ephemeris_type": 0,
        "meta_classification_type": "U",
        "meta_norad_cat_id": 40269,
        "meta_element_set_no": 999,
        "meta_rev_at_epoch": 4093,
        "meta_bstar": 0,
        "meta_mean_motion_dot": -1.44e-06,
        "meta_mean_motion_ddot": 0,
        "tle_line1": "1 40269U 14061A   25357.82784747 -.00000144  00000+0  00000+0 0  9990",
        "tle_line2": "2 40269   6.0701  92.3991 0018088   0.9978  20.2495  1.00273456 40934"
      },
      "geometry": {
        "type": "Point",
        "coordinates": [
          -96.05058470296999,
          0.8747356421399777
        ]
      }
    },
    {
      "type": "Feature",
      "properties": {
        "norad_id": 40294,
        "name": "GPS BIIF-8  (PRN 03)",
        "group": "gnss",
        "lat": -39.951658578675946,
        "lon": -109.12929748581438,
        "alt_km": 20339.898736551604,
        "timestamp": "2025-12-24T05:51:19.851583+00:00",
        "meta_object_name": "GPS BIIF-8  (PRN 03)",
        "meta_object_id": "2014-068A",
        "meta_epoch": "2025-12-23T10:16:22.808064",
        "meta_mean_motion": 2.00565491,
        "meta_eccentricity": 0.00608386,
        "meta_inclination": 56.8656,
        "meta_ra_of_asc_node": 37.7327,
        "meta_arg_of_pericenter": 68.9718,
        "meta_mean_anomaly": 291.747,
        "meta_ephemeris_type": 0,
        "meta_classification_type": "U",
        "meta_norad_cat_id": 40294,
        "meta_element_set_no": 999,
        "meta_rev_at_epoch": 8168,
        "meta_bstar": 0,
        "meta_mean_motion_dot": -4.8e-07,
        "meta_mean_motion_ddot": 0,
        "tle_line1": "1 40294U 14068A   25357.42804176 -.00000048  00000+0  00000+0 0  9993",
        "tle_line2": "2 40294  56.8656  37.7327 0060838  68.9718 291.7470  2.00565491 81685"
      },
      "geometry": {
        "type": "Point",
        "coordinates": [
          -109.12929748581438,
          -39.951658578675946
        ]
      }
    },
    {
      "type": "Feature",
      "properties": {
        "norad_id": 40315,
        "name": "COSMOS 2501 (702K)",
        "group": "gnss",
        "lat": -15.71195538587673,
        "lon": -171.6007060396444,
        "alt_km": 19170.625738021783,
        "timestamp": "2025-12-24T05:51:19.851596+00:00",
        "meta_object_name": "COSMOS 2501 (702K)",
        "meta_object_id": "2014-075A",
        "meta_epoch": "2025-12-19T02:31:27.452640",
        "meta_mean_motion": 2.13101513,
        "meta_eccentricity": 0.0020099,
        "meta_inclination": 63.6146,
        "meta_ra_of_asc_node": 196.6046,
        "meta_arg_of_pericenter": 204.1838,
        "meta_mean_anomaly": 155.7988,
        "meta_ephemeris_type": 0,
        "meta_classification_type": "U",
        "meta_norad_cat_id": 40315,
        "meta_element_set_no": 999,
        "meta_rev_at_epoch": 8601,
        "meta_bstar": 0,
        "meta_mean_motion_dot": 1.06e-06,
        "meta_mean_motion_ddot": 0,
        "tle_line1": "1 40315U 14075A   25353.10517885  .00000106  00000+0  00000+0 0  9998",
        "tle_line2": "2 40315  63.6146 196.6046 0020099 204.1838 155.7988  2.13101513 86014"
      },
      "geometry": {
        "type": "Point",
        "coordinates": [
          -171.6007060396444,
          -15.71195538587673
        ]
      }
    },
    {
      "type": "Feature",
      "properties": {
        "norad_id": 40534,
        "name": "GPS BIIF-9  (PRN 26)",
        "group": "gnss",
        "lat": 32.82339305900197,
        "lon": 2.5461115735130826,
        "alt_km": 20217.7940551678,
        "timestamp": "2025-12-24T05:51:19.851608+00:00",
        "meta_object_name": "GPS BIIF-9  (PRN 26)",
        "meta_object_id": "2015-013A",
        "meta_epoch": "2025-12-23T13:23:27.680064",
        "meta_mean_motion": 2.00561916,
        "meta_eccentricity": 0.01074584,
        "meta_inclination": 53.1963,
        "meta_ra_of_asc_node": 211.4421,
        "meta_arg_of_pericenter": 38.7467,
        "meta_mean_anomaly": 322.0973,
        "meta_ephemeris_type": 0,
        "meta_classification_type": "U",
        "meta_norad_cat_id": 40534,
        "meta_element_set_no": 999,
        "meta_rev_at_epoch": 7830,
        "meta_bstar": 0,
        "meta_mean_motion_dot": 7.5e-07,
        "meta_mean_motion_ddot": 0,
        "tle_line1": "1 40534U 15013A   25357.55795926  .00000075  00000+0  00000+0 0  9996",
        "tle_line2": "2 40534  53.1963 211.4421 0107458  38.7467 322.0973  2.00561916 78304"
      },
      "geometry": {
        "type": "Point",
        "coordinates": [
          2.5461115735130826,
          32.82339305900197
        ]
      }
    },
    {
      "type": "Feature",
      "properties": {
        "norad_id": 40544,
        "name": "GSAT0203 (GALILEO 7)",
        "group": "gnss",
        "lat": -54.8495351010015,
        "lon": -125.46578645325127,
        "alt_km": 23209.532869713345,
        "timestamp": "2025-12-24T05:51:19.851619+00:00",
        "meta_object_name": "GSAT0203 (GALILEO 7)",
        "meta_object_id": "2015-017A",
        "meta_epoch": "2025-12-20T21:23:15.511200",
        "meta_mean_motion": 1.70475982,
        "meta_eccentricity": 0.00064626,
        "meta_inclination": 56.8444,
        "meta_ra_of_asc_node": 346.4578,
        "meta_arg_of_pericenter": 274.4172,
        "meta_mean_anomaly": 85.5182,
        "meta_ephemeris_type": 0,
        "meta_classification_type": "U",
        "meta_norad_cat_id": 40544,
        "meta_element_set_no": 999,
        "meta_rev_at_epoch": 6616,
        "meta_bstar": 0,
        "meta_mean_motion_dot": -6.9e-07,
        "meta_mean_motion_ddot": 0,
        "tle_line1": "1 40544U 15017A   25354.89115175 -.00000069  00000+0  00000+0 0  9991",
        "tle_line2": "2 40544  56.8444 346.4578 0006462 274.4172  85.5182  1.70475982 66163"
      },
      "geometry": {
        "type": "Point",
        "coordinates": [
          -125.46578645325127,
          -54.8495351010015
        ]
      }
    }
  ]
}